NORAD_CAT_ID,OBJECT_NAME,OBJECT_TYPE,EPOCH,MEAN_MOTION,ECCENTRICITY,INCLINATION,RA_OF_ASC_NODE,ARG_OF_PERICENTER,MEAN_ANOMALY,BSTAR,MEAN_MOTION_DOT,MEAN_MOTION_DDOT,TLE_LINE0,TLE_LINE1,TLE_LINE2,SEMIMAJOR_AXIS,PERIOD,APOGEE,PERIGEE,DECAYED
53993.0,STARLINK-5121,PAYLOAD,2023-01-21 12:04:21,15.08870366,0.0001281,53.2173,300.8378,76.6111,283.5024,4.3188e-05,4e-06,0.0,0 STARLINK-5121,1 53993U 22125AF  23021.50302801  .00000400  00000-0  43188-4 0  9990,2 53993  53.2173 300.8378 0001281  76.6111 283.5024 15.08870366 17023,6917.7880000000005,95.436,540.539,538.766,0.0
53993.0,STARLINK-5121,PAYLOAD,2023-01-22 03:58:15,15.08854373,0.0001567,53.2176,297.866,68.4778,291.6381,2.0295e-05,3.5e-07,0.0,0 STARLINK-5121,1 53993U 22125AF  23022.16545236  .00000035  00000-0  20295-4 0  9992,2 53993  53.2176 297.8660 0001567  68.4778 291.6381 15.08854373 17127,6917.835999999999,95.437,540.785,538.617,0.0
53993.0,STARLINK-5121,PAYLOAD,2023-01-23 00:38:16,15.08835429,9.940000000000002e-05,53.2148,294.0001,51.5562,308.5519,-8.675e-05,-1.668e-05,0.0,0 STARLINK-5121,1 53993U 22125AF  23023.02658226 -.00001668  00000-0 -86750-4 0  9995,2 53993  53.2148 294.0001 0000994  51.5562 308.5519 15.08835429 17257,6917.894,95.438,540.447,539.072,0.0
53993.0,STARLINK-5121,PAYLOAD,2023-01-23 03:49:02,15.08848288,0.0001284,53.2161,293.4021,74.801,285.3124,-3.8615e-05,-9.03e-06,0.0,0 STARLINK-5121,1 53993U 22125AF  23023.15905421 -.00000903  00000-0 -38615-4 0  9999,2 53993  53.2161 293.4021 0001284  74.8010 285.3124 15.08848288 17279,6917.855,95.437,540.6080000000001,538.832,0.0
53993.0,STARLINK-5121,PAYLOAD,2023-01-23 18:07:31,15.08827699,0.0001614,53.2154,290.7239,87.2443,272.8734,6.328699999999999e-05,7.19e-06,0.0,0 STARLINK-5121,1 53993U 22125AF  23023.75522470  .00000719  00000-0  63287-4 0  9990,2 53993  53.2154 290.7239 0001614  87.2443 272.8734 15.08827699 17368,6917.918000000001,95.438,540.9,538.6659999999999,0.0
53993.0,STARLINK-5121,PAYLOAD,2023-01-24 00:29:03,15.08836027,0.0001338,53.2172,289.5384,92.8747,267.2398,0.0001654,2.345e-05,0.0,0 STARLINK-5121,1 53993U 22125AF  23024.02017634  .00002345  00000-0  16540-3 0  9998,2 53993  53.2172 289.5384 0001338  92.8747 267.2398 15.08836027 17401,6917.893,95.438,540.683,538.832,0.0
53993.0,STARLINK-5121,PAYLOAD,2023-01-25 03:30:36,15.0884114,0.000122,53.216,284.4806,89.3781,270.7351,7.2639e-05,8.68e-06,0.0,0 STARLINK-5121,1 53993U 22125AF  23025.14626108  .00000868  00000-0  72639-4 0  9994,2 53993  53.2160 284.4806 0001220  89.3781 270.7351 15.08841140 17578,6917.877,95.437,540.586,538.898,0.0
53993.0,STARLINK-5121,PAYLOAD,2023-01-25 09:52:09,15.08840312,0.0001209,53.2157,283.2898,63.8004,296.3112,8.6944e-05,1.096e-05,0.0,0 STARLINK-5121,1 53993U 22125AF  23025.41122242  .00001096  00000-0  86944-4 0  9992,2 53993  53.2157 283.2898 0001209  63.8004 296.3112 15.08840312 17539,6917.879,95.438,540.581,538.908,0.0
53993.0,STARLINK-5121,PAYLOAD,2023-01-26 01:46:01,15.08841392,0.0001224,53.2169,280.3192,87.5427,272.5705,6.0242e-05,6.71e-06,0.0,0 STARLINK-5121,1 53993U 22125AF  23026.07362549  .00000671  00000-0  60242-4 0  9992,2 53993  53.2169 280.3192 0001224  87.5427 272.5705 15.08841392 17719,6917.876,95.437,540.5880000000001,538.894,0.0
53993.0,STARLINK-5121,PAYLOAD,2023-01-27 01:36:47,15.08855077,0.0001111,53.2169,275.8602,93.2952,266.8167,0.0001010999999999,1.322e-05,0.0,0 STARLINK-5121,1 53993U 22125AF  23027.06721639  .00001322  00000-0  10110-3 0  9993,2 53993  53.2169 275.8602 0001111  93.2952 266.8167 15.08855077 17865,6917.834,95.437,540.4680000000001,538.931,0.0
53993.0,STARLINK-5121,PAYLOAD,2023-01-27 22:16:49,15.08829944,0.0001223,53.2175,271.9939,78.6714,281.4415,5.1483e-05,5.31e-06,0.0,0 STARLINK-5121,1 53993U 22125AF  23027.92835630  .00000531  00000-0  51483-4 0  9995,2 53993  53.2175 271.9939 0001223  78.6714 281.4415 15.08829944 17918,6917.911,95.438,540.622,538.93,0.0
53993.0,STARLINK-5121,PAYLOAD,2023-01-27 23:52:12,15.08838509,0.0001195,53.2169,271.6981,74.5323,285.5801,3.478e-06,-2.32e-06,0.0,0 STARLINK-5121,1 53993U 22125AF  23027.99459330 -.00000232  00000-0  34780-5 0  9992,2 53993  53.2169 271.6981 0001195  74.5323 285.5801 15.08838509 18006,6917.885,95.438,540.577,538.923,0.0
53993.0,STARLINK-5121,PAYLOAD,2023-01-28 10:59:54,15.08839516,0.0001192,53.217,269.6157,78.4991,281.6135,5.7533e-05,6.28e-06,0.0,0 STARLINK-5121,1 53993U 22125AF  23028.45827064  .00000628  00000-0  57533-4 0  9995,2 53993  53.2170 269.6157 0001192  78.4991 281.6135 15.08839516 17994,6917.882,95.438,540.571,538.922,0.0
53993.0,STARLINK-5121,PAYLOAD,2023-01-28 22:07:35,15.08852339,0.0001219,53.2171,267.5342,79.7159,280.3971,3.2317e-05,2.27e-06,0.0,0 STARLINK-5121,1 53993U 22125AF  23028.92194266  .00000227  00000-0  32317-4 0  9996,2 53993  53.2171 267.5342 0001219  79.7159 280.3971 15.08852339 18069,6917.843,95.437,540.551,538.864,0.0
53993.0,STARLINK-5121,PAYLOAD,2023-01-29 10:50:43,15.08764563,0.0001516,53.2171,265.1552,105.0055,255.1105,0.0011195,0.00017537,0.0,0 STARLINK-5121,1 53993U 22125AF  23029.45189263  .00017537  00000-0  11195-2 0  9997,2 53993  53.2171 265.1552 0001516 105.0055 255.1105 15.08764563 18222,6918.111,95.442,541.025,538.927,0.0
53993.0,STARLINK-5121,PAYLOAD,2023-01-29 17:12:13,15.08840574,0.0001316,53.217,263.9656,82.0625,278.0516,6.8444e-05,8.02e-06,0.0,0 STARLINK-5121,1 53993U 22125AF  23029.71682760  .00000802  00000-0  68444-4 0  9994,2 53993  53.2170 263.9656 0001316  82.0625 278.0516 15.08840574 18268,6917.879,95.438,540.654,538.833,0.0
53993.0,STARLINK-5121,PAYLOAD,2023-01-29 21:58:23,15.08836538,0.0001204,53.2174,263.0741,76.2086,283.904,9.8139e-05,1.274e-05,0.0,0 STARLINK-5121,1 53993U 22125AF  23029.91554857  .00001274  00000-0  98139-4 0  9999,2 53993  53.2174 263.0741 0001204  76.2086 283.9040 15.08836538 18217,6917.891,95.438,540.589,538.923,0.0
53993.0,STARLINK-5121,PAYLOAD,2023-01-30 01:09:09,15.08845902,0.0001406,53.2169,262.4791,74.0509,286.0638,9.6609e-05,1.25e-05,0.0,0 STARLINK-5121,1 53993U 22125AF  23030.04802300  .00001250  00000-0  96609-4 0  9998,2 53993  53.2169 262.4791 0001406  74.0509 286.0638 15.08845902 18233,6917.862,95.437,540.7,538.755,0.0
53993.0,STARLINK-5121,PAYLOAD,2023-01-30 21:49:10,15.08842047,0.0001375,53.2168,258.6125,84.6089,275.506,1.0476e-05,-1.21e-06,0.0,0 STARLINK-5121,1 53993U 22125AF  23030.90914638 -.00000121  00000-0  10476-4 0  9996,2 53993  53.2168 258.6125 0001375  84.6089 275.5060 15.08842047 18368,6917.874,95.437,540.69,538.788,0.0
53993.0,STARLINK-5121,PAYLOAD,2023-01-31 00:59:56,15.08844182,0.0001369,53.2169,258.0178,78.8197,281.2949,-2.3145e-05,-6.56e-06,0.0,0 STARLINK-5121,1 53993U 22125AF  23031.04162590 -.00000656  00000-0 -23145-4 0  9995,2 53993  53.2169 258.0178 0001369  78.8197 281.2949 15.08844182 18462,6917.868,95.437,540.68,538.786,0.0
53993.0,STARLINK-5121,PAYLOAD,2023-01-31 18:29:11,15.08815442,0.0001347,53.2175,254.7449,81.3875,278.727,0.00029963,4.481e-05,0.0,0 STARLINK-5121,1 53993U 22125AF  23031.77027472  .00004481  00000-0  29963-3 0  9995,2 53993  53.2175 254.7449 0001347  81.3875 278.7270 15.08815442 18578,6917.955,95.439,540.752,538.889,0.0
53993.0,STARLINK-5121,PAYLOAD,2023-01-31 21:39:57,15.0882141,0.0001371,53.2173,254.1507,79.9812,280.1335,0.00030897,4.63e-05,0.0,0 STARLINK-5121,1 53993U 22125AF  23031.90275235  .00004630  00000-0  30897-3 0  9996,2 53993  53.2173 254.1507 0001371  79.9812 280.1335 15.08821410 18511,6917.937,95.439,540.751,538.854,0.0
53993.0,STARLINK-5121,PAYLOAD,2023-02-01 00:50:43,15.08840456,0.0001417,53.2171,253.5562,75.0496,285.0653,1.6822e-05,-2e-07,0.0,0 STARLINK-5121,1 53993U 22125AF  23032.03522700 -.00000020  00000-0  16822-4 0  9996,2 53993  53.2171 253.5562 0001417  75.0496 285.0653 15.08840456 18618,6917.879,95.438,540.724,538.764,0.0
53993.0,STARLINK-5121,PAYLOAD,2023-02-01 16:44:35,15.08832855,0.0001366,53.2176,250.5826,73.2269,286.8873,-8.6056e-06,-4.25e-06,0.0,0 STARLINK-5121,1 53993U 22125AF  23032.69763398 -.00000425  00000-0 -86056-5 0  9995,2 53993  53.2176 250.5826 0001366  73.2269 286.8873 15.08832855 18712,6917.902,95.438,540.712,538.822,0.0
53993.0,STARLINK-5121,PAYLOAD,2023-02-01 21:30:44,15.08836234,0.0001289,53.2175,249.6914,73.328,286.7853,6.1415e-06,-1.9e-06,0.0,0 STARLINK-5121,1 53993U 22125AF  23032.89635161 -.00000190  00000-0  61415-5 0  9993,2 53993  53.2175 249.6914 0001289  73.3280 286.7853 15.08836234 18662,6917.892,95.438,540.649,538.865,0.0
53993.0,STARLINK-5121,PAYLOAD,2023-02-03 08:29:14,15.08828344,0.0001467,53.2167,243.1504,86.3395,273.7765,0.0001622,2.294e-05,0.0,0 STARLINK-5121,1 53993U 22125AF  23034.35363672  .00002294  00000-0  16220-3 0  9999,2 53993  53.2167 243.1504 0001467  86.3395 273.7765 15.08828344 18960,6917.916,95.438,540.796,538.766,0.0
53993.0,STARLINK-5121,PAYLOAD,2023-02-03 16:26:09,15.08836001,0.0001228,53.2167,241.6636,88.3159,271.7974,5.0563e-05,5.17e-06,0.0,0 STARLINK-5121,1 53993U 22125AF  23034.68483496  .00000517  00000-0  50563-4 0  9997,2 53993  53.2167 241.6636 0001228  88.3159 271.7974 15.08836001 18930,6917.893,95.438,540.607,538.908,0.0
53993.0,STARLINK-5121,PAYLOAD,2023-02-04 09:55:24,15.08838747,0.0001581,53.2159,238.3904,103.797,256.3199,3.1735e-05,2.17e-06,0.0,0 STARLINK-5121,1 53993U 22125AF  23035.41347539  .00000217  00000-0  31735-4 0  9993,2 53993  53.2159 238.3904 0001581 103.7970 256.3199 15.08838747 19126,6917.884,95.438,540.843,538.656,0.0
53993.0,STARLINK-5121,PAYLOAD,2023-02-04 13:06:10,15.08838574,0.0001567,53.2158,237.7961,99.0492,261.0678,2.8458e-05,1.65e-06,0.0,0 STARLINK-5121,1 53993U 22125AF  23035.54595604  .00000165  00000-0  28458-4 0  9995,2 53993  53.2158 237.7961 0001567  99.0492 261.0678 15.08838574 19067,6917.885,95.438,540.834,538.666,0.0
53993.0,STARLINK-5121,PAYLOAD,2023-02-04 19:27:43,15.08837914,0.0001351,53.2166,236.6076,89.782,270.3327,2.9937e-05,1.89e-06,0.0,0 STARLINK-5121,1 53993U 22125AF  23035.81091679  .00000189  00000-0  29937-4 0  9997,2 53993  53.2166 236.6076 0001351  89.7820 270.3327 15.08837914 19109,6917.887,95.438,540.686,538.817,0.0
